[{"OBJECT_NAME":"STARLINK-34551","OBJECT_ID":"2025-139U","EPOCH":"2025-07-30T20:44:47.072544","MEAN_MOTION":15.40940519,"ECCENTRICITY":9.43e-5,"INCLINATION":53.1595,"RA_OF_ASC_NODE":79.3719,"ARG_OF_PERICENTER":55.1,"MEAN_ANOMALY":305.0094,"EPHEMERIS_TYPE":0,"CLASSIFICATION_TYPE":"U","NORAD_CAT_ID":64682,"ELEMENT_SET_NO":999,"REV_AT_EPOCH":628,"BSTAR":0.0013137,"MEAN_MOTION_DOT":0.00054879,"MEAN_MOTION_DDOT":0},{"OBJECT_NAME":"STARLINK-34550","OBJECT_ID":"2025-139V","EPOCH":"2025-07-30T20:23:00.313152","MEAN_MOTION":15.39586168,"ECCENTRICITY":0.0001576,"INCLINATION":53.1605,"RA_OF_ASC_NODE":79.9984,"ARG_OF_PERICENTER":127.5926,"MEAN_ANOMALY":232.5222,"EPHEMERIS_TYPE":0,"CLASSIFICATION_TYPE":"U","NORAD_CAT_ID":64683,"ELEMENT_SET_NO":999,"REV_AT_EPOCH":627,"BSTAR":0.0028986,"MEAN_MOTION_DOT":0.0011721,"MEAN_MOTION_DDOT":0},{"OBJECT_NAME":"STARLINK-34485","OBJECT_ID":"2025-139W","EPOCH":"2025-07-30T21:35:56.504256","MEAN_MOTION":15.39650814,"ECCENTRICITY":0.0001188,"INCLINATION":53.161,"RA_OF_ASC_NODE":79.6033,"ARG_OF_PERICENTER":57.616,"MEAN_ANOMALY":302.496,"EPHEMERIS_TYPE":0,"CLASSIFICATION_TYPE":"U","NORAD_CAT_ID":64684,"ELEMENT_SET_NO":999,"REV_AT_EPOCH":628,"BSTAR":0.00099173,"MEAN_MOTION_DOT":0.00039515,"MEAN_MOTION_DDOT":0},{"OBJECT_NAME":"STARLINK-34253","OBJECT_ID":"2025-139X","EPOCH":"2025-07-30T22:00:01.999584","MEAN_MOTION":15.39587211,"ECCENTRICITY":0.0001108,"INCLINATION":53.1603,"RA_OF_ASC_NODE":79.4759,"ARG_OF_PERICENTER":96.6566,"MEAN_ANOMALY":20.1472,"EPHEMERIS_TYPE":0,"CLASSIFICATION_TYPE":"U","NORAD_CAT_ID":64685,"ELEMENT_SET_NO":999,"REV_AT_EPOCH":628,"BSTAR":0.00049439,"MEAN_MOTION_DOT":0.00019405,"MEAN_MOTION_DDOT":0},{"OBJECT_NAME":"STARLINK-34565","OBJECT_ID":"2025-139Y","EPOCH":"2025-07-30T22:00:01.999584","MEAN_MOTION":15.39593911,"ECCENTRICITY":0.0001288,"INCLINATION":53.1603,"RA_OF_ASC_NODE":79.4721,"ARG_OF_PERICENTER":78.6988,"MEAN_ANOMALY":39.9575,"EPHEMERIS_TYPE":0,"CLASSIFICATION_TYPE":"U","NORAD_CAT_ID":64686,"ELEMENT_SET_NO":999,"REV_AT_EPOCH":628,"BSTAR":0.00040412,"MEAN_MOTION_DOT":0.00015785,"MEAN_MOTION_DDOT":0},{"OBJECT_NAME":"STARLINK-34554","OBJECT_ID":"2025-139Z","EPOCH":"2025-07-30T21:49:19.014240","MEAN_MOTION":15.39636704,"ECCENTRICITY":0.0001095,"INCLINATION":53.1602,"RA_OF_ASC_NODE":79.6601,"ARG_OF_PERICENTER":76.1838,"MEAN_ANOMALY":283.9289,"EPHEMERIS_TYPE":0,"CLASSIFICATION_TYPE":"U","NORAD_CAT_ID":64687,"ELEMENT_SET_NO":999,"REV_AT_EPOCH":628,"BSTAR":0.0011965,"MEAN_MOTION_DOT":0.00047786,"MEAN_MOTION_DDOT":0},{"OBJECT_NAME":"STARLINK-34262","OBJECT_ID":"2025-139AA","EPOCH":"2025-07-30T22:00:01.999584","MEAN_MOTION":15.3959329,"ECCENTRICITY":0.0001133,"INCLINATION":53.1603,"RA_OF_ASC_NODE":79.373,"ARG_OF_PERICENTER":83.645,"MEAN_ANOMALY":84.6514,"EPHEMERIS_TYPE":0,"CLASSIFICATION_TYPE":"U","NORAD_CAT_ID":64688,"ELEMENT_SET_NO":999,"REV_AT_EPOCH":634,"BSTAR":0.00046226,"MEAN_MOTION_DOT":0.00018118,"MEAN_MOTION_DDOT":0},{"OBJECT_NAME":"STARLINK-34538","OBJECT_ID":"2025-139AB","EPOCH":"2025-07-30T22:00:01.999584","MEAN_MOTION":15.39601737,"ECCENTRICITY":0.0001255,"INCLINATION":53.1606,"RA_OF_ASC_NODE":79.4209,"ARG_OF_PERICENTER":77.7511,"MEAN_ANOMALY":66.6515,"EPHEMERIS_TYPE":0,"CLASSIFICATION_TYPE":"U","NORAD_CAT_ID":64689,"ELEMENT_SET_NO":999,"REV_AT_EPOCH":628,"BSTAR":0.00047786,"MEAN_MOTION_DOT":0.0001875,"MEAN_MOTION_DDOT":0},{"OBJECT_NAME":"STARLINK-34250","OBJECT_ID":"2025-139AC","EPOCH":"2025-07-30T22:00:01.999584","MEAN_MOTION":15.39594934,"ECCENTRICITY":0.0001344,"INCLINATION":53.1606,"RA_OF_ASC_NODE":79.4248,"ARG_OF_PERICENTER":81.2606,"MEAN_ANOMALY":61.2826,"EPHEMERIS_TYPE":0,"CLASSIFICATION_TYPE":"U","NORAD_CAT_ID":64690,"ELEMENT_SET_NO":999,"REV_AT_EPOCH":628,"BSTAR":0.00044236,"MEAN_MOTION_DOT":0.0001732,"MEAN_MOTION_DDOT":0},{"OBJECT_NAME":"STARLINK-34497","OBJECT_ID":"2025-142A","EPOCH":"2025-07-30T07:03:37.073376","MEAN_MOTION":15.42730038,"ECCENTRICITY":0.0003778,"INCLINATION":69.9996,"RA_OF_ASC_NODE":162.9861,"ARG_OF_PERICENTER":269.4587,"MEAN_ANOMALY":90.6162,"EPHEMERIS_TYPE":0,"CLASSIFICATION_TYPE":"U","NORAD_CAT_ID":64696,"ELEMENT_SET_NO":999,"REV_AT_EPOCH":613,"BSTAR":0.00043592,"MEAN_MOTION_DOT":0.00019001,"MEAN_MOTION_DDOT":0},{"OBJECT_NAME":"STARLINK-34584","OBJECT_ID":"2025-142B","EPOCH":"2025-07-30T14:03:47.255904","MEAN_MOTION":15.42721703,"ECCENTRICITY":0.000338,"INCLINATION":70.0019,"RA_OF_ASC_NODE":161.9932,"ARG_OF_PERICENTER":275.2151,"MEAN_ANOMALY":84.8645,"EPHEMERIS_TYPE":0,"CLASSIFICATION_TYPE":"U","NORAD_CAT_ID":64697,"ELEMENT_SET_NO":999,"REV_AT_EPOCH":602,"BSTAR":0.00090694,"MEAN_MOTION_DOT":0.00039787,"MEAN_MOTION_DDOT":0},{"OBJECT_NAME":"STARLINK-34535","OBJECT_ID":"2025-142C","EPOCH":"2025-07-30T14:00:01.999872","MEAN_MOTION":15.42696258,"ECCENTRICITY":0.0003675,"INCLINATION":70.0001,"RA_OF_ASC_NODE":161.8968,"ARG_OF_PERICENTER":264.3137,"MEAN_ANOMALY":171.3001,"EPHEMERIS_TYPE":0,"CLASSIFICATION_TYPE":"U","NORAD_CAT_ID":64698,"ELEMENT_SET_NO":999,"REV_AT_EPOCH":608,"BSTAR":0.00047839,"MEAN_MOTION_DOT":0.00020848,"MEAN_MOTION_DDOT":0},{"OBJECT_NAME":"STARLINK-34600","OBJECT_ID":"2025-142D","EPOCH":"2025-07-30T14:27:07.714368","MEAN_MOTION":15.42725949,"ECCENTRICITY":0.0003113,"INCLINATION":70.0019,"RA_OF_ASC_NODE":162.0533,"ARG_OF_PERICENTER":272.4111,"MEAN_ANOMALY":87.6714,"EPHEMERIS_TYPE":0,"CLASSIFICATION_TYPE":"U","NORAD_CAT_ID":64699,"ELEMENT_SET_NO":999,"REV_AT_EPOCH":602,"BSTAR":0.0011987,"MEAN_MOTION_DOT":0.00052729,"MEAN_MOTION_DDOT":0},{"OBJECT_NAME":"STARLINK-34560","OBJECT_ID":"2025-142E","EPOCH":"2025-07-30T06:51:56.907648","MEAN_MOTION":15.42726965,"ECCENTRICITY":0.0003176,"INCLINATION":70.0004,"RA_OF_ASC_NODE":162.9563,"ARG_OF_PERICENTER":268.3507,"MEAN_ANOMALY":91.7311,"EPHEMERIS_TYPE":0,"CLASSIFICATION_TYPE":"U","NORAD_CAT_ID":64700,"ELEMENT_SET_NO":999,"REV_AT_EPOCH":593,"BSTAR":0.00072122,"MEAN_MOTION_DOT":0.0003158,"MEAN_MOTION_DDOT":0},{"OBJECT_NAME":"STARLINK-34576","OBJECT_ID":"2025-142F","EPOCH":"2025-07-30T14:00:01.999872","MEAN_MOTION":15.42689196,"ECCENTRICITY":0.0003115,"INCLINATION":70.0001,"RA_OF_ASC_NODE":161.948,"ARG_OF_PERICENTER":269.43,"MEAN_ANOMALY":121.1984,"EPHEMERIS_TYPE":0,"CLASSIFICATION_TYPE":"U","NORAD_CAT_ID":64701,"ELEMENT_SET_NO":999,"REV_AT_EPOCH":597,"BSTAR":0.00041236,"MEAN_MOTION_DOT":0.00017938,"MEAN_MOTION_DDOT":0},{"OBJECT_NAME":"STARLINK-34322","OBJECT_ID":"2025-142G","EPOCH":"2025-07-30T14:00:01.999872","MEAN_MOTION":15.42676132,"ECCENTRICITY":0.0003067,"INCLINATION":70.0001,"RA_OF_ASC_NODE":161.8443,"ARG_OF_PERICENTER":271.9148,"MEAN_ANOMALY":208.722,"EPHEMERIS_TYPE":0,"CLASSIFICATION_TYPE":"U","NORAD_CAT_ID":64702,"ELEMENT_SET_NO":999,"REV_AT_EPOCH":618,"BSTAR":0.0006412,"MEAN_MOTION_DOT":0.00027999,"MEAN_MOTION_DDOT":0},{"OBJECT_NAME":"STARLINK-34470","OBJECT_ID":"2025-142H","EPOCH":"2025-07-30T14:15:27.167616","MEAN_MOTION":15.42737328,"ECCENTRICITY":0.0003055,"INCLINATION":70.0014,"RA_OF_ASC_NODE":162.0222,"ARG_OF_PERICENTER":270.3221,"MEAN_ANOMALY":89.7611,"EPHEMERIS_TYPE":0,"CLASSIFICATION_TYPE":"U","NORAD_CAT_ID":64703,"ELEMENT_SET_NO":999,"REV_AT_EPOCH":600,"BSTAR":0.00075697,"MEAN_MOTION_DOT":0.00033171,"MEAN_MOTION_DDOT":0}]
