STARLINK-34551          
1 64682U 25139U   25211.86443371  .00054879  00000+0  13137-2 0  9992
2 64682  53.1595  79.3719 0000943  55.1000 305.0094 15.40940519  6284
STARLINK-34550          
1 64683U 25139V   25211.84930918  .00117210  00000+0  28986-2 0  9996
2 64683  53.1605  79.9984 0001576 127.5926 232.5222 15.39586168  6271
STARLINK-34485          
1 64684U 25139W   25211.89995954  .00039515  00000+0  99173-3 0  9991
2 64684  53.1610  79.6033 0001188  57.6160 302.4960 15.39650814  6289
STARLINK-34253          
1 64685U 25139X   25211.91668981  .00019405  00000+0  49439-3 0  9998
2 64685  53.1603  79.4759 0001108  96.6566  20.1472 15.39587211  6282
STARLINK-34565          
1 64686U 25139Y   25211.91668981  .00015785  00000+0  40412-3 0  9998
2 64686  53.1603  79.4721 0001288  78.6988  39.9575 15.39593911  6285
STARLINK-34554          
1 64687U 25139Z   25211.90924785  .00047786  00000+0  11965-2 0  9991
2 64687  53.1602  79.6601 0001095  76.1838 283.9289 15.39636704  6288
STARLINK-34262          
1 64688U 25139AA  25211.91668981  .00018118  00000+0  46226-3 0  9992
2 64688  53.1603  79.3730 0001133  83.6450  84.6514 15.39593290  6342
STARLINK-34538          
1 64689U 25139AB  25211.91668981  .00018750  00000+0  47786-3 0  9997
2 64689  53.1606  79.4209 0001255  77.7511  66.6515 15.39601737  6285
STARLINK-34250          
1 64690U 25139AC  25211.91668981  .00017320  00000+0  44236-3 0  9998
2 64690  53.1606  79.4248 0001344  81.2606  61.2826 15.39594934  6280
STARLINK-34497          
1 64696U 25142A   25211.29417909  .00019001  00000+0  43592-3 0  9993
2 64696  69.9996 162.9861 0003778 269.4587  90.6162 15.42730038  6137
STARLINK-34584          
1 64697U 25142B   25211.58596361  .00039787  00000+0  90694-3 0  9994
2 64697  70.0019 161.9932 0003380 275.2151  84.8645 15.42721703  6024
STARLINK-34535          
1 64698U 25142C   25211.58335648  .00020848  00000+0  47839-3 0  9995
2 64698  70.0001 161.8968 0003675 264.3137 171.3001 15.42696258  6084
STARLINK-34600          
1 64699U 25142D   25211.60217262  .00052729  00000+0  11987-2 0  9997
2 64699  70.0019 162.0533 0003113 272.4111  87.6714 15.42725949  6028
STARLINK-34560          
1 64700U 25142E   25211.28607532  .00031580  00000+0  72122-3 0  9998
2 64700  70.0004 162.9563 0003176 268.3507  91.7311 15.42726965  5936
STARLINK-34576          
1 64701U 25142F   25211.58335648  .00017938  00000+0  41236-3 0  9991
2 64701  70.0001 161.9480 0003115 269.4300 121.1984 15.42689196  5979
STARLINK-34322          
1 64702U 25142G   25211.58335648  .00027999  00000+0  64120-3 0  9997
2 64702  70.0001 161.8443 0003067 271.9148 208.7220 15.42676132  6187
STARLINK-34470          
1 64703U 25142H   25211.59406444  .00033171  00000+0  75697-3 0  9992
2 64703  70.0014 162.0222 0003055 270.3221  89.7611 15.42737328  6009
